start=new Date('2022-01-16T00:00:00.000Z').valueOf();
sats=[{"GP_ID":"193922850","MEAN_ANOMALY":"291.5510","RCS_SIZE":"LARGE","OBJECT_NAME":"STARLINK-1695","EPHEMERIS_TYPE":"0","COUNTRY_CODE":"US","INCLINATION":"53.0555","TLE_LINE2":"2 46329  53.0555 314.0031 0001818  68.5673 291.5510 15.06403168 76543","PERIAPSIS":"545.945","OBJECT_ID":"2020-062E","SITE":"AFETR","MEAN_MOTION":"15.06403168","CLASSIFICATION_TYPE":"U","ELEMENT_SET_NO":"999","EPOCH":"2022-01-15T12:23:42.922464","SEMIMAJOR_AXIS":"6925.339","NORAD_CAT_ID":"46329","ECCENTRICITY":"0.00018180","OBJECT_TYPE":"PAYLOAD","PERIOD":"95.592","FILE":"3273936","MEAN_MOTION_DDOT":"0.0000000000000","TIME_SYSTEM":"UTC","ARG_OF_PERICENTER":"68.5673","MEAN_ELEMENT_THEORY":"SGP4","DECAY_DATE":null,"REF_FRAME":"TEME","CENTER_NAME":"EARTH","REV_AT_EPOCH":"7654","BSTAR":"0.00011815000000","TLE_LINE1":"1 46329U 20062E   22015.51646901  .00001479  00000-0  11815-3 0  9996","RA_OF_ASC_NODE":"314.0031","LAUNCH_DATE":"2020-09-03","MEAN_MOTION_DOT":"0.00001479","APOAPSIS":"548.463"},{"TLE_LINE2":"2 46330  53.0556 315.8406 0001767  63.0507 297.0662 15.06413776 76310","INCLINATION":"53.0556","PERIAPSIS":"545.948","OBJECT_ID":"2020-062F","SITE":"AFETR","CLASSIFICATION_TYPE":"U","MEAN_MOTION":"15.06413776","ELEMENT_SET_NO":"999","GP_ID":"193916833","MEAN_ANOMALY":"297.0662","RCS_SIZE":"LARGE","OBJECT_NAME":"STARLINK-1710","COUNTRY_CODE":"US","EPHEMERIS_TYPE":"0","MEAN_ELEMENT_THEORY":"SGP4","ARG_OF_PERICENTER":"63.0507","CENTER_NAME":"EARTH","REF_FRAME":"TEME","DECAY_DATE":null,"REV_AT_EPOCH":"7631","TLE_LINE1":"1 46330U 20062F   22015.10732661  .00000889  00000-0  78555-4 0  9991","BSTAR":"0.00007855500000","LAUNCH_DATE":"2020-09-03","MEAN_MOTION_DOT":"0.00000889","APOAPSIS":"548.395","RA_OF_ASC_NODE":"315.8406","NORAD_CAT_ID":"46330","SEMIMAJOR_AXIS":"6925.306","EPOCH":"2022-01-15T02:34:33.019104","OBJECT_TYPE":"PAYLOAD","ECCENTRICITY":"0.00017670","MEAN_MOTION_DDOT":"0.0000000000000","FILE":"3273762","PERIOD":"95.591","TIME_SYSTEM":"UTC"},{"MEAN_ANOMALY":"287.6774","GP_ID":"193946209","COUNTRY_CODE":"US","EPHEMERIS_TYPE":"0","OBJECT_NAME":"STARLINK-1719","RCS_SIZE":"LARGE","PERIAPSIS":"545.983","TLE_LINE2":"2 46331  53.0567 333.6147 0001720  72.4402 287.6774 15.06412855 76103","INCLINATION":"53.0567","ELEMENT_SET_NO":"999","CLASSIFICATION_TYPE":"U","MEAN_MOTION":"15.06412855","OBJECT_ID":"2020-062G","SITE":"AFETR","OBJECT_TYPE":"PAYLOAD","ECCENTRICITY":"0.00017200","NORAD_CAT_ID":"46331","SEMIMAJOR_AXIS":"6925.309","EPOCH":"2022-01-15T14:33:44.712864","TIME_SYSTEM":"UTC","MEAN_MOTION_DDOT":"0.0000000000000","FILE":"3274074","PERIOD":"95.591","CENTER_NAME":"EARTH","DECAY_DATE":null,"REF_FRAME":"TEME","MEAN_ELEMENT_THEORY":"SGP4","ARG_OF_PERICENTER":"72.4402","APOAPSIS":"548.365","LAUNCH_DATE":"2020-09-03","MEAN_MOTION_DOT":"0.00001297","RA_OF_ASC_NODE":"333.6147","TLE_LINE1":"1 46331U 20062G   22015.60676751  .00001297  00000-0  10593-3 0  9995","BSTAR":"0.00010593000000","REV_AT_EPOCH":"7610"},{"MEAN_ANOMALY":"295.1311","GP_ID":"193946459","EPHEMERIS_TYPE":"0","COUNTRY_CODE":"US","RCS_SIZE":"LARGE","OBJECT_NAME":"STARLINK-1721","PERIAPSIS":"546.073","INCLINATION":"53.0571","TLE_LINE2":"2 46332  53.0571 333.5475 0001621  64.9847 295.1311 15.06405711 76105","ELEMENT_SET_NO":"999","OBJECT_ID":"2020-062H","SITE":"AFETR","MEAN_MOTION":"15.06405711","CLASSIFICATION_TYPE":"U","EPOCH":"2022-01-15T14:49:40.531872","SEMIMAJOR_AXIS":"6925.331","NORAD_CAT_ID":"46332","ECCENTRICITY":"0.00016210","OBJECT_TYPE":"PAYLOAD","TIME_SYSTEM":"UTC","PERIOD":"95.592","FILE":"3274074","MEAN_MOTION_DDOT":"0.0000000000000","REF_FRAME":"TEME","DECAY_DATE":null,"CENTER_NAME":"EARTH","ARG_OF_PERICENTER":"64.9847","MEAN_ELEMENT_THEORY":"SGP4","BSTAR":"0.00015361000000","TLE_LINE1":"1 46332U 20062H   22015.61783023  .00002008  00000-0  15361-3 0  9997","RA_OF_ASC_NODE":"333.5475","MEAN_MOTION_DOT":"0.00002008","LAUNCH_DATE":"2020-09-03","APOAPSIS":"548.319","REV_AT_EPOCH":"7610"},{"ARG_OF_PERICENTER":"75.0362","MEAN_ELEMENT_THEORY":"SGP4","DECAY_DATE":null,"REF_FRAME":"TEME","CENTER_NAME":"EARTH","REV_AT_EPOCH":"7609","BSTAR":"0.00012827000000","TLE_LINE1":"1 46333U 20062J   22015.56622706  .00001630  00000-0  12827-3 0  9996","RA_OF_ASC_NODE":"333.7915","MEAN_MOTION_DOT":"0.00001630","LAUNCH_DATE":"2020-09-03","APOAPSIS":"548.235","EPOCH":"2022-01-15T13:35:22.017984","NORAD_CAT_ID":"46333","SEMIMAJOR_AXIS":"6925.347","ECCENTRICITY":"0.00014780","OBJECT_TYPE":"PAYLOAD","PERIOD":"95.592","MEAN_MOTION_DDOT":"0.0000000000000","FILE":"3273762","TIME_SYSTEM":"UTC","INCLINATION":"53.0563","TLE_LINE2":"2 46333  53.0563 333.7915 0001478  75.0362 285.0790 15.06400539 76093","PERIAPSIS":"546.188","OBJECT_ID":"2020-062J","SITE":"AFETR","MEAN_MOTION":"15.06400539","CLASSIFICATION_TYPE":"U","ELEMENT_SET_NO":"999","GP_ID":"193916583","MEAN_ANOMALY":"285.0790","RCS_SIZE":"LARGE","OBJECT_NAME":"STARLINK-1723","EPHEMERIS_TYPE":"0","COUNTRY_CODE":"US"},{"REV_AT_EPOCH":"7637","TLE_LINE1":"1 46334U 20062K   22015.54131950  .00001858  00000-0  14359-3 0  9995","BSTAR":"0.00014359000000","APOAPSIS":"548.664","LAUNCH_DATE":"2020-09-03","MEAN_MOTION_DOT":"0.00001858","RA_OF_ASC_NODE":"313.8869","MEAN_ELEMENT_THEORY":"SGP4","ARG_OF_PERICENTER":"61.6020","CENTER_NAME":"EARTH","REF_FRAME":"TEME","DECAY_DATE":null,"MEAN_MOTION_DDOT":"0.0000000000000","FILE":"3273762","PERIOD":"95.591","TIME_SYSTEM":"UTC","NORAD_CAT_ID":"46334","SEMIMAJOR_AXIS":"6925.303","EPOCH":"2022-01-15T12:59:30.004800","OBJECT_TYPE":"PAYLOAD","ECCENTRICITY":"0.00021600","SITE":"AFETR","OBJECT_ID":"2020-062K","CLASSIFICATION_TYPE":"U","MEAN_MOTION":"15.06414799","ELEMENT_SET_NO":"999","TLE_LINE2":"2 46334  53.0559 313.8869 0002160  61.6020 298.5187 15.06414799 76370","INCLINATION":"53.0559","PERIAPSIS":"545.672","RCS_SIZE":"LARGE","OBJECT_NAME":"STARLINK-1725","COUNTRY_CODE":"US","EPHEMERIS_TYPE":"0","GP_ID":"193916333","MEAN_ANOMALY":"298.5187"},{"RCS_SIZE":"LARGE","OBJECT_NAME":"STARLINK-1727","EPHEMERIS_TYPE":"0","COUNTRY_CODE":"US","GP_ID":"193920942","MEAN_ANOMALY":"294.8257","SITE":"AFETR","OBJECT_ID":"2020-062L","MEAN_MOTION":"15.06409203","CLASSIFICATION_TYPE":"U","ELEMENT_SET_NO":"999","INCLINATION":"53.0557","TLE_LINE2":"2 46335  53.0557 333.6475 0001794  65.2919 294.8257 15.06409203 76282","PERIAPSIS":"545.943","PERIOD":"95.592","FILE":"3273871","MEAN_MOTION_DDOT":"0.0000000000000","TIME_SYSTEM":"UTC","EPOCH":"2022-01-15T14:17:49.941888","SEMIMAJOR_AXIS":"6925.320","NORAD_CAT_ID":"46335","ECCENTRICITY":"0.00017940","OBJECT_TYPE":"PAYLOAD","REV_AT_EPOCH":"7628","BSTAR":"0.00035125000000","TLE_LINE1":"1 46335U 20062L   22015.59571692  .00004955  00000-0  35125-3 0  9997","RA_OF_ASC_NODE":"333.6475","MEAN_MOTION_DOT":"0.00004955","LAUNCH_DATE":"2020-09-03","APOAPSIS":"548.428","ARG_OF_PERICENTER":"65.2919","MEAN_ELEMENT_THEORY":"SGP4","DECAY_DATE":null,"REF_FRAME":"TEME","CENTER_NAME":"EARTH"},{"MEAN_ELEMENT_THEORY":"SGP4","ARG_OF_PERICENTER":"61.8079","CENTER_NAME":"EARTH","REF_FRAME":"TEME","DECAY_DATE":null,"REV_AT_EPOCH":"7655","LAUNCH_DATE":"2020-09-03","MEAN_MOTION_DOT":"0.00001967","APOAPSIS":"548.554","RA_OF_ASC_NODE":"313.9999","TLE_LINE1":"1 46336U 20062M   22015.52015379  .00001967  00000-0  15088-3 0  9992","BSTAR":"0.00015088000000","OBJECT_TYPE":"PAYLOAD","ECCENTRICITY":"0.00019460","SEMIMAJOR_AXIS":"6925.342","NORAD_CAT_ID":"46336","EPOCH":"2022-01-15T12:29:01.287456","FILE":"3273871","MEAN_MOTION_DDOT":"0.0000000000000","PERIOD":"95.592","TIME_SYSTEM":"UTC","TLE_LINE2":"2 46336  53.0568 313.9999 0001946  61.8079 298.3106 15.06402251 76553","INCLINATION":"53.0568","PERIAPSIS":"545.859","CLASSIFICATION_TYPE":"U","MEAN_MOTION":"15.06402251","SITE":"AFETR","OBJECT_ID":"2020-062M","ELEMENT_SET_NO":"999","GP_ID":"193920936","MEAN_ANOMALY":"298.3106","OBJECT_NAME":"STARLINK-1738","RCS_SIZE":"LARGE","COUNTRY_CODE":"US","EPHEMERIS_TYPE":"0"},{"ELEMENT_SET_NO":"999","MEAN_MOTION":"15.06403352","CLASSIFICATION_TYPE":"U","OBJECT_ID":"2020-062N","SITE":"AFETR","PERIAPSIS":"545.941","INCLINATION":"53.0559","TLE_LINE2":"2 46337  53.0559 313.9148 0001822  70.3713 289.7472 15.06403352 76556","EPHEMERIS_TYPE":"0","COUNTRY_CODE":"US","OBJECT_NAME":"STARLINK-1750","RCS_SIZE":"LARGE","MEAN_ANOMALY":"289.7472","GP_ID":"193921229","RA_OF_ASC_NODE":"313.9148","LAUNCH_DATE":"2020-09-03","MEAN_MOTION_DOT":"0.00002205","APOAPSIS":"548.465","BSTAR":"0.00016690000000","TLE_LINE1":"1 46337U 20062N   22015.53489691  .00002205  00000-0  16690-3 0  9992","REV_AT_EPOCH":"7655","REF_FRAME":"TEME","DECAY_DATE":null,"CENTER_NAME":"EARTH","ARG_OF_PERICENTER":"70.3713","MEAN_ELEMENT_THEORY":"SGP4","TIME_SYSTEM":"UTC","PERIOD":"95.592","FILE":"3273871","MEAN_MOTION_DDOT":"0.0000000000000","ECCENTRICITY":"0.00018220","OBJECT_TYPE":"PAYLOAD","EPOCH":"2022-01-15T12:50:15.093024","SEMIMAJOR_AXIS":"6925.338","NORAD_CAT_ID":"46337"},{"EPOCH":"2022-01-15T14:01:54.814944","SEMIMAJOR_AXIS":"6925.342","NORAD_CAT_ID":"46338","ECCENTRICITY":"0.00019900","OBJECT_TYPE":"PAYLOAD","TIME_SYSTEM":"UTC","PERIOD":"95.592","FILE":"3273871","MEAN_MOTION_DDOT":"0.0000000000000","DECAY_DATE":null,"REF_FRAME":"TEME","CENTER_NAME":"EARTH","ARG_OF_PERICENTER":"65.2473","MEAN_ELEMENT_THEORY":"SGP4","BSTAR":"0.00005518900000","TLE_LINE1":"1 46338U 20062P   22015.58466221  .00000540  00000-0  55189-4 0  9999","RA_OF_ASC_NODE":"333.6915","MEAN_MOTION_DOT":"0.00000540","LAUNCH_DATE":"2020-09-03","APOAPSIS":"548.585","REV_AT_EPOCH":"7627","MEAN_ANOMALY":"294.8723","GP_ID":"193921237","EPHEMERIS_TYPE":"0","COUNTRY_CODE":"US","RCS_SIZE":"LARGE","OBJECT_NAME":"STARLINK-1752","PERIAPSIS":"545.829","INCLINATION":"53.0557","TLE_LINE2":"2 46338  53.0557 333.6915 0001990  65.2473 294.8723 15.06402207 76271","ELEMENT_SET_NO":"999","OBJECT_ID":"2020-062P","SITE":"AFETR","MEAN_MOTION":"15.06402207","CLASSIFICATION_TYPE":"U"}];
